[{"OBJECT_NAME":"SAOCOM 1A","OBJECT_ID":"2018-076A","EPOCH":"2026-04-03T19:21:57.993408","MEAN_MOTION":14.82147933,"ECCENTRICITY":0.0001382,"INCLINATION":97.8895,"RA_OF_ASC_NODE":281.6253,"ARG_OF_PERICENTER":88.3626,"MEAN_ANOMALY":271.7746,"EPHEMERIS_TYPE":0,"CLASSIFICATION_TYPE":"U","NORAD_CAT_ID":43641,"ELEMENT_SET_NO":999,"REV_AT_EPOCH":40508,"BSTAR":9.3116e-6,"MEAN_MOTION_DOT":2.2e-7,"MEAN_MOTION_DDOT":0},{"OBJECT_NAME":"H-2A R/B","OBJECT_ID":"2018-084L","EPOCH":"2026-04-03T14:06:57.848256","MEAN_MOTION":15.42467,"ECCENTRICITY":0.002333,"INCLINATION":98.8684,"RA_OF_ASC_NODE":316.316,"ARG_OF_PERICENTER":297.6019,"MEAN_ANOMALY":62.2855,"EPHEMERIS_TYPE":0,"CLASSIFICATION_TYPE":"U","NORAD_CAT_ID":43682,"ELEMENT_SET_NO":999,"REV_AT_EPOCH":40961,"BSTAR":0.00073796,"MEAN_MOTION_DOT":0.00032248,"MEAN_MOTION_DDOT":0},{"OBJECT_NAME":"SAOCOM 1B","OBJECT_ID":"2020-059A","EPOCH":"2026-04-03T20:06:57.895776","MEAN_MOTION":14.82150513,"ECCENTRICITY":0.0001455,"INCLINATION":97.8883,"RA_OF_ASC_NODE":280.7528,"ARG_OF_PERICENTER":83.3897,"MEAN_ANOMALY":276.7482,"EPHEMERIS_TYPE":0,"CLASSIFICATION_TYPE":"U","NORAD_CAT_ID":46265,"ELEMENT_SET_NO":999,"REV_AT_EPOCH":30247,"BSTAR":0.00010948,"MEAN_MOTION_DOT":8.19e-6,"MEAN_MOTION_DDOT":0},{"OBJECT_NAME":"CSS (TIANHE)","OBJECT_ID":"2021-035A","EPOCH":"2026-04-03T20:29:41.224704","MEAN_MOTION":15.61964693,"ECCENTRICITY":0.00038,"INCLINATION":41.4676,"RA_OF_ASC_NODE":54.8968,"ARG_OF_PERICENTER":118.735,"MEAN_ANOMALY":241.3871,"EPHEMERIS_TYPE":0,"CLASSIFICATION_TYPE":"U","NORAD_CAT_ID":48274,"ELEMENT_SET_NO":999,"REV_AT_EPOCH":28154,"BSTAR":0.00038035,"MEAN_MOTION_DOT":0.00033937,"MEAN_MOTION_DDOT":0},{"OBJECT_NAME":"COSMOS 2550","OBJECT_ID":"2021-056A","EPOCH":"2026-04-01T11:17:21.715008","MEAN_MOTION":15.33839536,"ECCENTRICITY":0.00083284,"INCLINATION":67.1445,"RA_OF_ASC_NODE":331.9738,"ARG_OF_PERICENTER":269.3207,"MEAN_ANOMALY":90.6993,"EPHEMERIS_TYPE":0,"CLASSIFICATION_TYPE":"U","NORAD_CAT_ID":48865,"ELEMENT_SET_NO":999,"REV_AT_EPOCH":26695,"BSTAR":0.00017705072,"MEAN_MOTION_DOT":5.639e-5,"MEAN_MOTION_DDOT":0},{"OBJECT_NAME":"CZ-2C R/B","OBJECT_ID":"2022-058K","EPOCH":"2026-04-03T15:15:24.255360","MEAN_MOTION":15.56231657,"ECCENTRICITY":0.0041161,"INCLINATION":50.1875,"RA_OF_ASC_NODE":189.7869,"ARG_OF_PERICENTER":307.898,"MEAN_ANOMALY":51.8272,"EPHEMERIS_TYPE":0,"CLASSIFICATION_TYPE":"U","NORAD_CAT_ID":52794,"ELEMENT_SET_NO":999,"REV_AT_EPOCH":21401,"BSTAR":0.00072855,"MEAN_MOTION_DOT":0.00054065,"MEAN_MOTION_DDOT":0},{"OBJECT_NAME":"CZ-2C R/B","OBJECT_ID":"2022-132E","EPOCH":"2026-04-03T14:18:39.930336","MEAN_MOTION":15.64298197,"ECCENTRICITY":0.0016131,"INCLINATION":97.295,"RA_OF_ASC_NODE":97.7134,"ARG_OF_PERICENTER":7.8841,"MEAN_ANOMALY":352.2668,"EPHEMERIS_TYPE":0,"CLASSIFICATION_TYPE":"U","NORAD_CAT_ID":54039,"ELEMENT_SET_NO":999,"REV_AT_EPOCH":19426,"BSTAR":0.00067454,"MEAN_MOTION_DOT":0.00065029,"MEAN_MOTION_DDOT":0},{"OBJECT_NAME":"GSLV R/B","OBJECT_ID":"2022-138AN","EPOCH":"2026-04-03T14:09:12.866400","MEAN_MOTION":14.96940187,"ECCENTRICITY":0.0023765,"INCLINATION":87.3851,"RA_OF_ASC_NODE":158.0251,"ARG_OF_PERICENTER":64.758,"MEAN_ANOMALY":295.6111,"EPHEMERIS_TYPE":0,"CLASSIFICATION_TYPE":"U","NORAD_CAT_ID":54149,"ELEMENT_SET_NO":999,"REV_AT_EPOCH":18765,"BSTAR":0.00046897,"MEAN_MOTION_DOT":5.444e-5,"MEAN_MOTION_DDOT":0},{"OBJECT_NAME":"XRISM","OBJECT_ID":"2023-137A","EPOCH":"2026-04-03T12:49:17.119488","MEAN_MOTION":15.11805272,"ECCENTRICITY":0.0007841,"INCLINATION":31.0011,"RA_OF_ASC_NODE":122.9307,"ARG_OF_PERICENTER":288.5773,"MEAN_ANOMALY":71.4014,"EPHEMERIS_TYPE":0,"CLASSIFICATION_TYPE":"U","NORAD_CAT_ID":57800,"ELEMENT_SET_NO":999,"REV_AT_EPOCH":14155,"BSTAR":0.00051504,"MEAN_MOTION_DOT":9.122e-5,"MEAN_MOTION_DDOT":0},{"OBJECT_NAME":"ACS3","OBJECT_ID":"2024-077B","EPOCH":"2026-04-03T16:31:54.561216","MEAN_MOTION":13.9083067,"ECCENTRICITY":0.0073394,"INCLINATION":97.1954,"RA_OF_ASC_NODE":29.1827,"ARG_OF_PERICENTER":20.1741,"MEAN_ANOMALY":340.2298,"EPHEMERIS_TYPE":0,"CLASSIFICATION_TYPE":"U","NORAD_CAT_ID":59588,"ELEMENT_SET_NO":999,"REV_AT_EPOCH":9767,"BSTAR":0.021129,"MEAN_MOTION_DOT":0.00027071,"MEAN_MOTION_DDOT":0},{"OBJECT_NAME":"HTV-X1","OBJECT_ID":"2025-241A","EPOCH":"2026-04-03T19:43:39.982656","MEAN_MOTION":15.32523004,"ECCENTRICITY":0.0007281,"INCLINATION":51.636,"RA_OF_ASC_NODE":311.923,"ARG_OF_PERICENTER":269.6353,"MEAN_ANOMALY":90.3794,"EPHEMERIS_TYPE":0,"CLASSIFICATION_TYPE":"U","NORAD_CAT_ID":66174,"ELEMENT_SET_NO":999,"REV_AT_EPOCH":2479,"BSTAR":0.000266,"MEAN_MOTION_DOT":8.122e-5,"MEAN_MOTION_DDOT":0},{"OBJECT_NAME":"SZ-21 MODULE","OBJECT_ID":"2025-246C","EPOCH":"2026-04-03T13:41:59.326656","MEAN_MOTION":15.70603524,"ECCENTRICITY":0.000297,"INCLINATION":41.4748,"RA_OF_ASC_NODE":49.9717,"ARG_OF_PERICENTER":226.3876,"MEAN_ANOMALY":133.672,"EPHEMERIS_TYPE":0,"CLASSIFICATION_TYPE":"U","NORAD_CAT_ID":66515,"ELEMENT_SET_NO":999,"REV_AT_EPOCH":2198,"BSTAR":0.00044364,"MEAN_MOTION_DOT":0.00056445,"MEAN_MOTION_DDOT":0}]
