SAOCOM 1A               
1 43641U 18076A   26093.80692122  .00000022  00000+0  93116-5 0  9998
2 43641  97.8895 281.6253 0001382  88.3626 271.7746 14.82147933405083
H-2A R/B                
1 43682U 18084L   26093.58816954  .00032248  00000+0  73796-3 0  9993
2 43682  98.8684 316.3160 0023330 297.6019  62.2855 15.42467000409610
SAOCOM 1B               
1 46265U 20059A   26093.83817009  .00000819  00000+0  10948-3 0  9997
2 46265  97.8883 280.7528 0001455  83.3897 276.7482 14.82150513302475
CSS (TIANHE)            
1 48274U 21035A   26093.85394936  .00033937  00000+0  38035-3 0  9999
2 48274  41.4676  54.8968 0003800 118.7350 241.3871 15.61964693281547
COSMOS 2550             
1 48865U 21056A   26091.47039022  .00005639  00000+0  17705-3 0  9995
2 48865  67.1445 331.9738 0008328 269.3207  90.6993 15.33839536266954
CZ-2C R/B               
1 52794U 22058K   26093.63569740  .00054065  00000+0  72855-3 0  9993
2 52794  50.1875 189.7869 0041161 307.8980  51.8272 15.56231657214015
CZ-2C R/B               
1 54039U 22132E   26093.59629549  .00065029  00000+0  67454-3 0  9990
2 54039  97.2950  97.7134 0016131   7.8841 352.2668 15.64298197194262
GSLV R/B                
1 54149U 22138AN  26093.58973225  .00005444  00000+0  46897-3 0  9993
2 54149  87.3851 158.0251 0023765  64.7580 295.6111 14.96940187187653
XRISM                   
1 57800U 23137A   26093.53422592  .00009122  00000+0  51504-3 0  9999
2 57800  31.0011 122.9307 0007841 288.5773  71.4014 15.11805272141557
ACS3                    
1 59588U 24077B   26093.68882594  .00027071  00000+0  21129-1 0  9997
2 59588  97.1954  29.1827 0073394  20.1741 340.2298 13.90830670 97676
HTV-X1                  
1 66174U 25241A   26093.82199054  .00008122  00000+0  26600-3 0  9995
2 66174  51.6360 311.9230 0007281 269.6353  90.3794 15.32523004 24797
SZ-21 MODULE            
1 66515U 25246C   26093.57082554  .00056445  00000+0  44364-3 0  9995
2 66515  41.4748  49.9717 0002970 226.3876 133.6720 15.70603524 21987
